CCSDS_OMM_VERS = 2.0
CREATION_DATE  = 
ORIGINATOR     = 

OBJECT_NAME    = SDA_1668
OBJECT_ID      = 2025-230E
CENTER_NAME    = EARTH
REF_FRAME      = TEME
TIME_SYSTEM    = UTC
MEAN_ELEMENT_THEORY = SGP/SGP4

EPOCH          = 2025-11-04T10:22:46.317792
MEAN_MOTION    = 13.85467999
ECCENTRICITY   = .0004976
INCLINATION    = 81.3014
RA_OF_ASC_NODE = 60.1144
ARG_OF_PERICENTER = 108.0302
MEAN_ANOMALY   = 252.1398

EPHEMERIS_TYPE = 0
CLASSIFICATION_TYPE = U
NORAD_CAT_ID   = 65978
ELEMENT_SET_NO = 999
REV_AT_EPOCH   = 270
BSTAR          = .23353E-3
MEAN_MOTION_DOT = .278E-5
MEAN_MOTION_DDOT = 0

CCSDS_OMM_VERS = 2.0
CREATION_DATE  = 
ORIGINATOR     = 

OBJECT_NAME    = SDA_1669
OBJECT_ID      = 2025-230F
CENTER_NAME    = EARTH
REF_FRAME      = TEME
TIME_SYSTEM    = UTC
MEAN_ELEMENT_THEORY = SGP/SGP4

EPOCH          = 2025-11-04T10:27:28.056096
MEAN_MOTION    = 13.85234542
ECCENTRICITY   = .0005087
INCLINATION    = 81.3016
RA_OF_ASC_NODE = 60.1194
ARG_OF_PERICENTER = 95.5193
MEAN_ANOMALY   = 264.6545

EPHEMERIS_TYPE = 0
CLASSIFICATION_TYPE = U
NORAD_CAT_ID   = 65979
ELEMENT_SET_NO = 999
REV_AT_EPOCH   = 270
BSTAR          = .18714E-3
MEAN_MOTION_DOT = .224E-5
MEAN_MOTION_DDOT = 0

CCSDS_OMM_VERS = 2.0
CREATION_DATE  = 
ORIGINATOR     = 

OBJECT_NAME    = SDA_1670
OBJECT_ID      = 2025-230G
CENTER_NAME    = EARTH
REF_FRAME      = TEME
TIME_SYSTEM    = UTC
MEAN_ELEMENT_THEORY = SGP/SGP4

EPOCH          = 2025-11-04T10:36:00.563616
MEAN_MOTION    = 13.84811634
ECCENTRICITY   = .0003652
INCLINATION    = 81.2994
RA_OF_ASC_NODE = 60.1238
ARG_OF_PERICENTER = 70.3130
MEAN_ANOMALY   = 289.8421

EPHEMERIS_TYPE = 0
CLASSIFICATION_TYPE = U
NORAD_CAT_ID   = 65980
ELEMENT_SET_NO = 999
REV_AT_EPOCH   = 270
BSTAR          = .21309E-3
MEAN_MOTION_DOT = .252E-5
MEAN_MOTION_DDOT = 0

CCSDS_OMM_VERS = 2.0
CREATION_DATE  = 
ORIGINATOR     = 

OBJECT_NAME    = SDA_1671
OBJECT_ID      = 2025-230H
CENTER_NAME    = EARTH
REF_FRAME      = TEME
TIME_SYSTEM    = UTC
MEAN_ELEMENT_THEORY = SGP/SGP4

EPOCH          = 2025-11-04T10:24:54.131040
MEAN_MOTION    = 13.85361138
ECCENTRICITY   = .0005029
INCLINATION    = 81.3020
RA_OF_ASC_NODE = 60.1176
ARG_OF_PERICENTER = 102.2524
MEAN_ANOMALY   = 257.9197

EPHEMERIS_TYPE = 0
CLASSIFICATION_TYPE = U
NORAD_CAT_ID   = 65981
ELEMENT_SET_NO = 999
REV_AT_EPOCH   = 270
BSTAR          = .21118E-3
MEAN_MOTION_DOT = .252E-5
MEAN_MOTION_DDOT = 0

CCSDS_OMM_VERS = 2.0
CREATION_DATE  = 
ORIGINATOR     = 

OBJECT_NAME    = SDA_1672
OBJECT_ID      = 2025-230J
CENTER_NAME    = EARTH
REF_FRAME      = TEME
TIME_SYSTEM    = UTC
MEAN_ELEMENT_THEORY = SGP/SGP4

EPOCH          = 2025-11-04T10:33:07.508736
MEAN_MOTION    = 13.84954500
ECCENTRICITY   = .0004311
INCLINATION    = 81.3027
RA_OF_ASC_NODE = 60.1279
ARG_OF_PERICENTER = 75.6982
MEAN_ANOMALY   = 284.4653

EPHEMERIS_TYPE = 0
CLASSIFICATION_TYPE = U
NORAD_CAT_ID   = 65982
ELEMENT_SET_NO = 999
REV_AT_EPOCH   = 270
BSTAR          = .1617E-3
MEAN_MOTION_DOT = .195E-5
MEAN_MOTION_DDOT = 0

CCSDS_OMM_VERS = 2.0
CREATION_DATE  = 
ORIGINATOR     = 

OBJECT_NAME    = SDA_1673
OBJECT_ID      = 2025-230K
CENTER_NAME    = EARTH
REF_FRAME      = TEME
TIME_SYSTEM    = UTC
MEAN_ELEMENT_THEORY = SGP/SGP4

EPOCH          = 2025-11-04T10:21:02.090016
MEAN_MOTION    = 13.85553758
ECCENTRICITY   = .0005108
INCLINATION    = 81.3026
RA_OF_ASC_NODE = 60.1183
ARG_OF_PERICENTER = 112.5186
MEAN_ANOMALY   = 247.6512

EPHEMERIS_TYPE = 0
CLASSIFICATION_TYPE = U
NORAD_CAT_ID   = 65983
ELEMENT_SET_NO = 999
REV_AT_EPOCH   = 270
BSTAR          = .1924E-3
MEAN_MOTION_DOT = .231E-5
MEAN_MOTION_DDOT = 0

CCSDS_OMM_VERS = 2.0
CREATION_DATE  = 
ORIGINATOR     = 

OBJECT_NAME    = SDA_1674
OBJECT_ID      = 2025-230L
CENTER_NAME    = EARTH
REF_FRAME      = TEME
TIME_SYSTEM    = UTC
MEAN_ELEMENT_THEORY = SGP/SGP4

EPOCH          = 2025-11-04T10:24:13.161024
MEAN_MOTION    = 13.85396171
ECCENTRICITY   = .0004973
INCLINATION    = 81.3017
RA_OF_ASC_NODE = 60.1162
ARG_OF_PERICENTER = 104.0854
MEAN_ANOMALY   = 256.0856

EPHEMERIS_TYPE = 0
CLASSIFICATION_TYPE = U
NORAD_CAT_ID   = 65984
ELEMENT_SET_NO = 999
REV_AT_EPOCH   = 270
BSTAR          = .20571E-3
MEAN_MOTION_DOT = .246E-5
MEAN_MOTION_DDOT = 0

CCSDS_OMM_VERS = 2.0
CREATION_DATE  = 
ORIGINATOR     = 

OBJECT_NAME    = SDA_1675
OBJECT_ID      = 2025-230M
CENTER_NAME    = EARTH
REF_FRAME      = TEME
TIME_SYSTEM    = UTC
MEAN_ELEMENT_THEORY = SGP/SGP4

EPOCH          = 2025-11-04T10:37:45.602688
MEAN_MOTION    = 13.84724784
ECCENTRICITY   = .0003481
INCLINATION    = 81.2994
RA_OF_ASC_NODE = 60.1254
ARG_OF_PERICENTER = 65.0190
MEAN_ANOMALY   = 295.1328

EPHEMERIS_TYPE = 0
CLASSIFICATION_TYPE = U
NORAD_CAT_ID   = 65985
ELEMENT_SET_NO = 999
REV_AT_EPOCH   = 270
BSTAR          = .1944E-3
MEAN_MOTION_DOT = .231E-5
MEAN_MOTION_DDOT = 0

CCSDS_OMM_VERS = 2.0
CREATION_DATE  = 
ORIGINATOR     = 

OBJECT_NAME    = SDA_1676
OBJECT_ID      = 2025-230N
CENTER_NAME    = EARTH
REF_FRAME      = TEME
TIME_SYSTEM    = UTC
MEAN_ELEMENT_THEORY = SGP/SGP4

EPOCH          = 2025-11-04T10:40:47.822880
MEAN_MOTION    = 13.84574434
ECCENTRICITY   = .0002798
INCLINATION    = 81.3025
RA_OF_ASC_NODE = 60.1339
ARG_OF_PERICENTER = 56.8597
MEAN_ANOMALY   = 303.2828

EPHEMERIS_TYPE = 0
CLASSIFICATION_TYPE = U
NORAD_CAT_ID   = 65986
ELEMENT_SET_NO = 999
REV_AT_EPOCH   = 270
BSTAR          = .19313E-3
MEAN_MOTION_DOT = .229E-5
MEAN_MOTION_DDOT = 0

CCSDS_OMM_VERS = 2.0
CREATION_DATE  = 
ORIGINATOR     = 

OBJECT_NAME    = SDA_1677
OBJECT_ID      = 2025-230P
CENTER_NAME    = EARTH
REF_FRAME      = TEME
TIME_SYSTEM    = UTC
MEAN_ELEMENT_THEORY = SGP/SGP4

EPOCH          = 2025-11-04T10:39:03.735072
MEAN_MOTION    = 13.84659945
ECCENTRICITY   = .0003148
INCLINATION    = 81.2998
RA_OF_ASC_NODE = 60.1279
ARG_OF_PERICENTER = 61.6002
MEAN_ANOMALY   = 298.5471

EPHEMERIS_TYPE = 0
CLASSIFICATION_TYPE = U
NORAD_CAT_ID   = 65987
ELEMENT_SET_NO = 999
REV_AT_EPOCH   = 270
BSTAR          = .19268E-3
MEAN_MOTION_DOT = .228E-5
MEAN_MOTION_DDOT = 0

CCSDS_OMM_VERS = 2.0
CREATION_DATE  = 
ORIGINATOR     = 

OBJECT_NAME    = SDA_1678
OBJECT_ID      = 2025-230Q
CENTER_NAME    = EARTH
REF_FRAME      = TEME
TIME_SYSTEM    = UTC
MEAN_ELEMENT_THEORY = SGP/SGP4

EPOCH          = 2025-11-04T10:21:55.221696
MEAN_MOTION    = 13.85509397
ECCENTRICITY   = .0005022
INCLINATION    = 81.3030
RA_OF_ASC_NODE = 60.1207
ARG_OF_PERICENTER = 110.3716
MEAN_ANOMALY   = 249.7981

EPHEMERIS_TYPE = 0
CLASSIFICATION_TYPE = U
NORAD_CAT_ID   = 65988
ELEMENT_SET_NO = 999
REV_AT_EPOCH   = 270
BSTAR          = .19876E-3
MEAN_MOTION_DOT = .239E-5
MEAN_MOTION_DDOT = 0

CCSDS_OMM_VERS = 2.0
CREATION_DATE  = 
ORIGINATOR     = 

OBJECT_NAME    = SDA_1679
OBJECT_ID      = 2025-230R
CENTER_NAME    = EARTH
REF_FRAME      = TEME
TIME_SYSTEM    = UTC
MEAN_ELEMENT_THEORY = SGP/SGP4

EPOCH          = 2025-11-04T10:25:59.014848
MEAN_MOTION    = 13.85308665
ECCENTRICITY   = .0005165
INCLINATION    = 81.3027
RA_OF_ASC_NODE = 60.1249
ARG_OF_PERICENTER = 99.2784
MEAN_ANOMALY   = 260.8957

EPHEMERIS_TYPE = 0
CLASSIFICATION_TYPE = U
NORAD_CAT_ID   = 65989
ELEMENT_SET_NO = 999
REV_AT_EPOCH   = 270
BSTAR          = .21519E-3
MEAN_MOTION_DOT = .256E-5
MEAN_MOTION_DDOT = 0

