SDA_1668                
1 65978U 25230E   25308.43248053  .00000278  00000+0  23353-3 0  9999
2 65978  81.3014  60.1144 0004976 108.0302 252.1398 13.85467999  2700
SDA_1669                
1 65979U 25230F   25308.43574139  .00000224  00000+0  18714-3 0  9993
2 65979  81.3016  60.1194 0005087  95.5193 264.6545 13.85234542  2708
SDA_1670                
1 65980U 25230G   25308.44167319  .00000252  00000+0  21309-3 0  9999
2 65980  81.2994  60.1238 0003652  70.3130 289.8421 13.84811634  2705
SDA_1671                
1 65981U 25230H   25308.43395985  .00000252  00000+0  21118-3 0  9999
2 65981  81.3020  60.1176 0005029 102.2524 257.9197 13.85361138  2706
SDA_1672                
1 65982U 25230J   25308.43967024  .00000195  00000+0  16170-3 0  9997
2 65982  81.3027  60.1279 0004311  75.6982 284.4653 13.84954500  2704
SDA_1673                
1 65983U 25230K   25308.43127419  .00000231  00000+0  19240-3 0  9996
2 65983  81.3026  60.1183 0005108 112.5186 247.6512 13.85553758  2706
SDA_1674                
1 65984U 25230L   25308.43348566  .00000246  00000+0  20571-3 0  9990
2 65984  81.3017  60.1162 0004973 104.0854 256.0856 13.85396171  2700
SDA_1675                
1 65985U 25230M   25308.44288892  .00000231  00000+0  19440-3 0  9994
2 65985  81.2994  60.1254 0003481  65.0190 295.1328 13.84724784  2700
SDA_1676                
1 65986U 25230N   25308.44499795  .00000229  00000+0  19313-3 0  9997
2 65986  81.3025  60.1339 0002798  56.8597 303.2828 13.84574434  2701
SDA_1677                
1 65987U 25230P   25308.44379323  .00000228  00000+0  19268-3 0  9990
2 65987  81.2998  60.1279 0003148  61.6002 298.5471 13.84659945  2709
SDA_1678                
1 65988U 25230Q   25308.43188914  .00000239  00000+0  19876-3 0  9991
2 65988  81.3030  60.1207 0005022 110.3716 249.7981 13.85509397  2706
SDA_1679                
1 65989U 25230R   25308.43471082  .00000256  00000+0  21519-3 0  9999
2 65989  81.3027  60.1249 0005165  99.2784 260.8957 13.85308665  2709
